[
    {
        "CCSDS_OMM_VERS": "3.0",
        "COMMENT": "GENERATED VIA SPACE-TRACK.ORG API",
        "CREATION_DATE": "2025-03-01T17:52:32",
        "ORIGINATOR": "18 SPCS",
        "OBJECT_NAME": "BD-18",
        "OBJECT_ID": "2015-037A",
        "CENTER_NAME": "EARTH",
        "REF_FRAME": "TEME",
        "TIME_SYSTEM": "UTC",
        "MEAN_ELEMENT_THEORY": "SGP4",
        "EPOCH": "2025-03-01T06:22:09.100704",
        "MEAN_MOTION": "1.86229031",
        "ECCENTRICITY": "0.00095230",
        "INCLINATION": "55.2784",
        "RA_OF_ASC_NODE": "318.2754",
        "ARG_OF_PERICENTER": "271.4724",
        "MEAN_ANOMALY": "88.4771",
        "EPHEMERIS_TYPE": "0",
        "CLASSIFICATION_TYPE": "U",
        "NORAD_CAT_ID": "40748",
        "ELEMENT_SET_NO": "999",
        "REV_AT_EPOCH": "6531",
        "BSTAR": "0.00000000000000",
        "MEAN_MOTION_DOT": "-0.00000050",
        "MEAN_MOTION_DDOT": "0.0000000000000",
        "SEMIMAJOR_AXIS": "27906.385",
        "PERIOD": "773.241",
        "APOAPSIS": "21554.826",
        "PERIAPSIS": "21501.675",
        "OBJECT_TYPE": "PAYLOAD",
        "RCS_SIZE": "LARGE",
        "COUNTRY_CODE": "PRC",
        "LAUNCH_DATE": "2015-07-25",
        "SITE": "XSC",
        "DECAY_DATE": null,
        "FILE": "4656182",
        "GP_ID": "282002760",
        "TLE_LINE0": "0 BD-18",
        "TLE_LINE1": "1 40748U 15037A   25060.26538311 -.00000050  00000-0  00000-0 0  9997",
        "TLE_LINE2": "2 40748  55.2784 318.2754 0009523 271.4724  88.4771  1.86229031 65314"
    }
]